{"type":"FeatureCollection","features":[{"type":"Feature","properties":{},"geometry":{"type":"LineString","coordinates":[[47.978,7.997],[48.127,8.222],[48.273,8.443],[48.429,8.68],[48.617,8.965],[48.794,9.233],[48.938,9.452],[48.938,9.564],[48.938,9.808],[48.938,9.973],[48.938,10.433],[48.938,10.714],[48.938,10.982],[48.939,11.258]]}},{"type":"Feature","properties":{},"geometry":{"type":"LineString","coordinates":[[47.978,7.997],[47.732,7.759],[47.453,7.49],[47.16,7.208],[46.971,7.026],[46.672,6.737],[46.423,6.497],[46.167,6.235],[45.935,5.997],[45.634,5.668],[45.438,5.455],[45.133,5.122],[44.941,4.912],[44.912,4.9],[44.637,4.916],[44.37,4.931],[44.028,4.951],[43.989,4.951],[43.889,4.931],[43.829,4.911],[43.584,4.855],[43.538,4.84],[43.334,4.75],[43.126,4.644],[43.016,4.563],[42.931,4.445],[42.895,4.361],[42.857,4.324],[42.792,4.292],[42.355,4.212],[42.228,4.202],[42.024,4.138],[41.915,4.031],[41.884,3.978]]}},{"type":"Feature","properties":{},"geometry":{"type":"LineString","coordinates":[[35.551,32.396],[35.484,32.402],[35.403,32.451],[35.387,32.493],[35.362,32.507],[35.304,32.513],[35.193,32.534],[35.065,32.46],[35.011,32.338],[34.999,32.281],[34.956,32.161],[34.971,32.087],[34.979,31.992],[34.99,31.913],[34.978,31.866],[34.954,31.841],[34.961,31.823],[34.983,31.817],[35.053,31.838],[35.127,31.817],[35.198,31.776],[35.204,31.75],[35.153,31.734],[35.035,31.673],[34.951,31.602],[34.929,31.537],[34.873,31.397],[34.88,31.368],[34.908,31.351],[35.101,31.366],[35.277,31.423],[35.409,31.483],[35.451,31.479]]}},{"type":"Feature","properties":{},"geometry":{"type":"LineString","coordinates":[[35.109,33.084],[35.223,33.092],[35.309,33.08],[35.411,33.076],[35.493,33.12],[35.533,33.25],[35.579,33.271],[35.603,33.241]]}},{"type":"Feature","properties":{},"geometry":{"type":"LineString","coordinates":[[35.787,32.735],[35.833,32.82],[35.842,32.876],[35.888,32.944],[35.859,32.989],[35.845,33.085],[35.825,33.108],[35.817,33.133],[35.833,33.164],[35.827,33.195],[35.809,33.209],[35.8,33.256],[35.785,33.291],[35.793,33.334],[35.816,33.362],[35.841,33.416]]}},{"type":"Feature","properties":{},"geometry":{"type":"LineString","coordinates":[[77.799,35.496],[77.811,35.485],[77.852,35.461],[77.895,35.449],[77.946,35.472],[78.009,35.49],[78.043,35.48],[78.047,35.449],[78.009,35.307],[78.012,35.251],[78.076,35.135],[78.158,34.946],[78.236,34.77],[78.282,34.654],[78.327,34.606],[78.516,34.558],[78.671,34.518],[78.763,34.453],[78.865,34.39],[78.936,34.352],[78.97,34.303],[78.977,34.258],[78.971,34.228],[78.932,34.189],[78.753,34.088],[78.732,34.056],[78.727,34.013],[78.762,33.888],[78.784,33.809],[78.79,33.65],[78.802,33.5],[78.865,33.431],[78.917,33.387]]}},{"type":"Feature","properties":{},"geometry":{"type":"LineString","coordinates":[[77.049,35.11],[77.031,35.062],[77.001,34.992],[76.892,34.939],[76.783,34.9],[76.758,34.878],[76.749,34.848],[76.696,34.787],[76.594,34.736],[76.51,34.741],[76.457,34.756],[76.172,34.668],[76.041,34.67],[75.938,34.613],[75.862,34.56],[75.709,34.503],[75.606,34.503],[75.452,34.537],[75.319,34.582]]}},{"type":"Feature","properties":{},"geometry":{"type":"LineString","coordinates":[[91.632,27.76],[91.713,27.76],[91.825,27.746],[91.909,27.73],[91.978,27.73],[92.101,27.808],[92.158,27.812],[92.222,27.827],[92.251,27.841],[92.27,27.83],[92.341,27.821],[92.415,27.825],[92.481,27.846],[92.547,27.879],[92.664,27.949],[92.688,27.989],[92.687,28.026],[92.666,28.05],[92.643,28.062],[92.653,28.093],[92.702,28.147],[92.882,28.228],[93.035,28.328],[93.171,28.362],[93.189,28.434],[93.242,28.501],[93.311,28.598],[93.361,28.654],[93.665,28.69],[93.761,28.73],[93.897,28.743],[93.974,28.861],[94.067,28.891],[94.266,28.969],[94.305,29.056],[94.293,29.145],[94.468,29.216],[94.623,29.312],[94.677,29.297],[94.733,29.252],[94.763,29.201],[94.769,29.176],[94.968,29.144],[94.999,29.149],[95.145,29.104],[95.279,29.05],[95.353,29.036],[95.389,29.037],[95.42,29.054],[95.457,29.102],[95.494,29.137],[95.517,29.151],[95.516,29.206],[95.714,29.243],[95.768,29.339],[95.878,29.347],[96.047,29.367],[96.128,29.381],[96.195,29.272],[96.235,29.246],[96.337,29.261],[96.356,29.249],[96.34,29.21],[96.271,29.161],[96.181,29.118],[96.183,29.074],[96.201,28.965],[96.347,29.027],[96.436,29.051],[96.467,29.022],[96.477,28.959],[96.55,28.83],[96.581,28.764],[96.485,28.607],[96.33,28.497],[96.326,28.469],[96.279,28.428],[96.281,28.412],[96.32,28.387],[96.366,28.367],[96.389,28.368],[96.428,28.406],[96.603,28.46],[96.653,28.45],[96.776,28.367],[96.833,28.362],[96.981,28.338],[97.075,28.369],[97.145,28.34],[97.289,28.237],[97.323,28.218]]}},{"type":"Feature","properties":{},"geometry":{"type":"LineString","coordinates":[[35.92,4.62],[35.846,4.703],[35.763,4.808],[35.756,4.95],[35.779,5.106],[35.8,5.157],[35.788,5.208],[35.791,5.279],[35.745,5.344],[35.469,5.419],[35.424,5.413],[35.378,5.385],[35.325,5.365],[35.288,5.384],[35.265,5.412],[35.264,5.458],[35.268,5.492]]}},{"type":"Feature","properties":{},"geometry":{"type":"LineString","coordinates":[[91.632,27.76],[91.629,27.801],[91.642,27.923],[91.606,27.952],[91.493,27.982],[91.368,28.022],[91.307,28.064],[91.273,28.078],[91.226,28.071],[91.15,28.027],[91.078,27.974],[91.021,27.97],[90.963,27.995],[90.907,28.027],[90.716,28.072],[90.63,28.079],[90.477,28.071],[90.353,28.08],[90.333,28.094],[90.334,28.118]]}},{"type":"Feature","properties":{},"geometry":{"type":"LineString","coordinates":[[35.841,33.416],[35.787,33.37],[35.734,33.333],[35.627,33.275],[35.603,33.241]]}},{"type":"Feature","properties":{},"geometry":{"type":"LineString","coordinates":[[35.841,33.416],[35.869,33.432],[35.915,33.465],[35.927,33.5],[35.968,33.535],[36.022,33.563],[36.034,33.585],[36.027,33.598],[35.972,33.623],[35.942,33.668],[35.968,33.732],[35.986,33.753],[36.019,33.784],[36.092,33.832],[36.15,33.839],[36.199,33.84],[36.283,33.836],[36.349,33.827],[36.365,33.839],[36.363,33.855],[36.282,33.894],[36.278,33.925],[36.298,33.959],[36.355,34.011],[36.423,34.05],[36.458,34.057],[36.535,34.134],[36.585,34.221],[36.504,34.432],[36.456,34.466],[36.376,34.495],[36.33,34.5],[36.326,34.513],[36.389,34.567],[36.433,34.613],[36.384,34.658],[36.296,34.679],[36.264,34.633],[36.151,34.629],[35.976,34.629]]}},{"type":"Feature","properties":{},"geometry":{"type":"LineString","coordinates":[[104.426,10.411],[104.467,10.422],[104.514,10.463],[104.564,10.516],[104.69,10.523],[104.815,10.521],[104.851,10.534],[104.901,10.59],[104.984,10.662],[105.046,10.702],[105.061,10.734],[105.036,10.809],[105.022,10.887],[105.046,10.911],[105.16,10.898],[105.284,10.861],[105.315,10.845],[105.386,10.94],[105.406,10.952],[105.453,10.951],[105.577,10.969],[105.698,10.994],[105.755,10.99],[105.811,10.926],[105.853,10.864],[105.875,10.859],[105.938,10.885],[105.99,10.852],[106.099,10.797],[106.164,10.795],[106.132,10.922],[106.168,11.012],[106.161,11.037],[106.099,11.079],[105.892,11.245],[105.856,11.294],[105.861,11.372],[105.854,11.487],[105.835,11.559],[105.839,11.601],[105.851,11.635],[105.89,11.648],[105.927,11.653],[105.956,11.682],[106.006,11.758],[106.103,11.751],[106.239,11.708],[106.34,11.682],[106.399,11.687],[106.413,11.698],[106.411,11.738],[106.418,11.912],[106.414,11.948],[106.5,11.966],[106.631,11.969],[106.7,11.979],[106.765,12.052],[106.931,12.078],[107.051,12.176],[107.159,12.277],[107.212,12.304],[107.28,12.322],[107.33,12.319],[107.393,12.26],[107.446,12.296],[107.506,12.365],[107.538,12.432],[107.555,12.54],[107.544,12.706],[107.512,12.836],[107.482,12.933],[107.475,13.03],[107.546,13.225],[107.605,13.438],[107.594,13.522],[107.529,13.654],[107.462,13.816],[107.389,13.993],[107.362,14.019],[107.343,14.069],[107.331,14.127],[107.36,14.308],[107.364,14.369],[107.448,14.451],[107.493,14.546],[107.535,14.65],[107.519,14.705]]}},{"type":"Feature","properties":{},"geometry":{"type":"LineString","coordinates":[[101.139,21.567],[101.197,21.522],[101.175,21.408],[101.206,21.383],[101.22,21.342],[101.212,21.278],[101.224,21.224],[101.248,21.197],[101.281,21.184],[101.444,21.231],[101.542,21.234],[101.584,21.204],[101.622,21.184],[101.669,21.17],[101.705,21.15],[101.728,21.156],[101.783,21.204],[101.801,21.213],[101.802,21.236],[101.763,21.279],[101.723,21.315],[101.724,21.395],[101.743,21.534],[101.747,21.606],[101.744,21.778],[101.737,21.827],[101.7,21.882],[101.603,21.99],[101.576,22.055],[101.56,22.121],[101.562,22.162],[101.537,22.21],[101.524,22.254],[101.568,22.276],[101.62,22.327],[101.646,22.405],[101.671,22.462],[101.708,22.487],[101.739,22.495],[101.76,22.49],[101.842,22.388],[101.945,22.439],[102.024,22.439],[102.091,22.412],[102.127,22.379]]}},{"type":"Feature","properties":{},"geometry":{"type":"LineString","coordinates":[[42.923,10.999],[43.049,11.194],[43.159,11.366],[43.246,11.5]]}},{"type":"Feature","properties":{},"geometry":{"type":"LineString","coordinates":[[42.923,10.999],[42.844,10.998],[42.783,11.009],[42.741,11.042],[42.655,11.078],[42.558,11.081],[42.465,11.047],[42.308,11.005],[42.166,10.992],[42.052,10.968],[41.957,10.941],[41.872,10.956],[41.798,10.98],[41.782,11.188],[41.765,11.413],[41.767,11.589],[41.793,11.686],[41.816,11.724],[41.95,11.858],[41.996,11.912],[42.149,12.134],[42.28,12.324],[42.378,12.466]]}},{"type":"Feature","properties":{},"geometry":{"type":"LineString","coordinates":[[42.378,12.466],[42.409,12.494],[42.45,12.521],[42.479,12.514],[42.67,12.377],[42.704,12.38],[42.767,12.423],[42.825,12.569],[42.866,12.623],[42.883,12.621],[43.006,12.662],[43.117,12.709]]}},{"type":"Feature","properties":{},"geometry":{"type":"LineString","coordinates":[[55.186,22.704],[55.194,22.85],[55.192,22.923],[55.2,23.035],[55.27,23.19],[55.353,23.387],[55.414,23.519],[55.466,23.633],[55.509,23.725],[55.532,23.819],[55.519,23.885],[55.492,23.91],[55.468,23.941],[55.548,23.991],[55.697,24.024],[55.779,24.017],[55.894,24.041],[55.985,24.063],[55.992,24.093],[55.966,24.143],[55.929,24.215],[55.8,24.223],[55.761,24.243],[55.806,24.35],[55.804,24.384],[55.787,24.424],[55.768,24.491],[55.778,24.577],[55.804,24.636],[55.804,24.684],[55.792,24.781],[55.796,24.868],[55.823,24.911],[55.871,24.951],[55.916,24.972],[55.963,24.97],[56.001,24.953],[56.017,24.908],[56.006,24.876],[55.98,24.872],[55.97,24.859],[56.008,24.798],[56.064,24.739],[56.107,24.749],[56.154,24.796],[56.205,24.833],[56.268,24.867],[56.314,24.931],[56.353,24.973],[56.388,24.979]]}},{"type":"Feature","properties":{},"geometry":{"type":"LineString","coordinates":[[51.268,24.607],[51.178,24.587],[51.093,24.565],[51.023,24.565],[50.966,24.574],[50.928,24.595],[50.856,24.68],[50.804,24.789]]}},{"type":"Feature","properties":{},"geometry":{"type":"LineString","coordinates":[[102.934,11.707],[102.918,11.732],[102.737,12.09],[102.706,12.256],[102.737,12.383],[102.756,12.426],[102.703,12.494],[102.63,12.57],[102.5,12.67],[102.491,12.828],[102.462,13.015],[102.423,13.078],[102.363,13.193],[102.331,13.288],[102.32,13.54],[102.336,13.56],[102.428,13.568],[102.547,13.586],[102.566,13.626],[102.545,13.66],[102.62,13.717],[102.729,13.842],[102.813,13.972],[102.873,14.055],[102.909,14.137],[103.031,14.253],[103.199,14.333],[103.314,14.351],[103.432,14.379],[103.546,14.417],[103.6,14.421],[103.742,14.374],[103.818,14.362],[103.899,14.363],[103.982,14.358],[104.054,14.363],[104.228,14.396],[104.412,14.37],[104.576,14.39],[104.779,14.428],[104.879,14.404],[104.97,14.366],[104.982,14.289],[105.003,14.254],[105.034,14.227],[105.074,14.227],[105.126,14.281],[105.169,14.336],[105.183,14.346]]}},{"type":"Feature","properties":{},"geometry":{"type":"LineString","coordinates":[[88.891,27.316],[88.882,27.297],[88.76,27.218],[88.739,27.176],[88.766,27.134],[88.814,27.099],[88.835,27.066],[88.858,26.961],[88.919,26.932],[89.041,26.865],[89.148,26.816],[89.332,26.849],[89.384,26.827],[89.475,26.803],[89.545,26.796],[89.586,26.779],[89.609,26.762],[89.606,26.741],[89.61,26.719],[89.711,26.714],[89.764,26.702],[89.943,26.724],[90.123,26.755],[90.206,26.848],[90.242,26.854],[90.346,26.89],[90.448,26.851],[90.56,26.797],[90.62,26.78],[90.74,26.772],[90.856,26.778],[91.134,26.803],[91.287,26.79],[91.427,26.867],[91.456,26.867],[91.518,26.807],[91.672,26.802],[91.754,26.831],[91.842,26.853],[91.899,26.86],[91.944,26.861],[91.998,26.855],[92.05,26.875],[92.073,26.915],[92.068,26.975],[92.031,27.041],[91.999,27.079],[91.992,27.1],[92.003,27.147],[92.031,27.214],[92.083,27.291],[92.045,27.365],[91.991,27.45],[91.951,27.458],[91.851,27.439],[91.743,27.443],[91.658,27.494],[91.595,27.558],[91.579,27.611],[91.598,27.677],[91.626,27.737],[91.632,27.76]]}},{"type":"Feature","properties":{},"geometry":{"type":"LineString","coordinates":[[104.067,1.278],[104.064,1.334],[104.056,1.402],[103.897,1.436],[103.822,1.46],[103.702,1.437],[103.633,1.349],[103.589,1.262],[103.593,1.224],[103.599,1.206]]}},{"type":"Feature","properties":{},"geometry":{"type":"LineString","coordinates":[[100.119,6.442],[100.138,6.489],[100.161,6.642],[100.177,6.672],[100.217,6.687],[100.261,6.683],[100.345,6.55],[100.564,6.468],[100.63,6.448],[100.716,6.481],[100.755,6.46],[100.794,6.426],[100.817,6.332],[100.874,6.245],[100.989,6.258],[101.029,6.245],[101.054,6.243],[101.076,6.166],[101.086,6.034],[101.076,5.956],[100.993,5.846],[100.982,5.771],[101.025,5.725],[101.082,5.675],[101.114,5.637],[101.148,5.643],[101.191,5.669],[101.23,5.734],[101.257,5.789],[101.404,5.852],[101.556,5.908],[101.577,5.902],[101.601,5.877],[101.65,5.796],[101.678,5.779],[101.72,5.771],[101.791,5.779],[101.874,5.825],[101.917,5.911],[101.936,5.979],[102.055,6.097],[102.068,6.185],[102.101,6.242]]}},{"type":"Feature","properties":{},"geometry":{"type":"LineString","coordinates":[[46.531,29.096],[46.694,29.26],[46.769,29.347],[46.906,29.538],[46.976,29.673],[47.044,29.823],[47.102,29.94],[47.114,29.961],[47.148,30.001],[47.223,30.041],[47.331,30.08],[47.515,30.097],[47.644,30.097],[47.673,30.096],[47.754,30.077],[47.979,29.983]]}},{"type":"Feature","properties":{},"geometry":{"type":"LineString","coordinates":[[88.11,27.871],[88.099,27.905],[88.109,27.933],[88.141,27.949],[88.275,27.969],[88.426,28.012],[88.486,28.034],[88.532,28.057],[88.578,28.093],[88.621,28.092],[88.756,28.04],[88.804,28.007],[88.829,27.907],[88.849,27.869],[88.83,27.767],[88.749,27.522],[88.765,27.43],[88.833,27.363],[88.891,27.316]]}},{"type":"Feature","properties":{},"geometry":{"type":"LineString","coordinates":[[92.575,21.978],[92.583,21.94],[92.584,21.609],[92.593,21.467],[92.625,21.351],[92.632,21.306],[92.6,21.27],[92.569,21.263],[92.539,21.32],[92.472,21.363],[92.373,21.409],[92.331,21.44],[92.28,21.428],[92.208,21.358],[92.18,21.293],[92.192,21.202],[92.215,21.113],[92.264,21.061],[92.268,21.005],[92.286,20.932],[92.312,20.864],[92.324,20.792]]}},{"type":"Feature","properties":{},"geometry":{"type":"LineString","coordinates":[[78.917,33.387],[78.948,33.347],[79.013,33.291],[79.067,33.25],[79.113,33.226],[79.117,33.225]]}},{"type":"Feature","properties":{},"geometry":{"type":"LineString","coordinates":[[35.451,31.479],[35.423,31.325],[35.424,31.325],[35.401,31.23],[35.41,31.214],[35.439,31.132],[35.383,30.982],[35.32,30.86],[35.298,30.802],[35.237,30.673],[35.174,30.524],[35.141,30.421],[35.148,30.384],[35.133,30.195],[35.142,30.142],[35.068,29.978],[35.053,29.897],[35.024,29.787],[34.973,29.555]]}},{"type":"Feature","properties":{},"geometry":{"type":"LineString","coordinates":[[35.551,32.396],[35.572,32.238],[35.535,32.103],[35.532,31.985],[35.559,31.766],[35.499,31.672],[35.465,31.562],[35.451,31.479]]}},{"type":"Feature","properties":{},"geometry":{"type":"LineString","coordinates":[[35.611,32.682],[35.594,32.668],[35.573,32.641],[35.569,32.62],[35.551,32.396]]}},{"type":"Feature","properties":{},"geometry":{"type":"LineString","coordinates":[[88.11,27.871],[88.023,27.883],[87.933,27.891],[87.861,27.886],[87.683,27.821],[87.623,27.815],[87.555,27.822],[87.464,27.824],[87.291,27.822],[87.141,27.838],[87.02,27.929],[86.934,27.968],[86.842,27.999],[86.75,28.022],[86.72,28.071],[86.691,28.095],[86.614,28.103],[86.555,28.085],[86.517,27.964],[86.485,27.94],[86.409,27.929],[86.329,27.96],[86.218,28.022],[86.174,28.092],[86.137,28.114],[86.079,28.084],[86.076,27.995],[86.064,27.935],[85.995,27.91],[85.954,27.928],[85.922,27.99],[85.84,28.135],[85.759,28.221],[85.678,28.277],[85.411,28.276],[85.212,28.293],[85.122,28.316],[85.089,28.372],[85.121,28.484],[85.16,28.572],[85.159,28.592],[85.126,28.603],[85.069,28.61],[84.855,28.554],[84.797,28.56],[84.759,28.579],[84.714,28.596],[84.677,28.622],[84.651,28.66],[84.465,28.753],[84.411,28.804],[84.312,28.868],[84.229,28.912],[84.176,29.036],[84.128,29.156],[84.101,29.22],[84.022,29.254],[83.936,29.28],[83.79,29.227],[83.671,29.188],[83.584,29.184],[83.457,29.306],[83.355,29.439],[83.235,29.555],[83.155,29.613],[83.014,29.618],[82.854,29.683],[82.641,29.831],[82.487,29.941],[82.221,30.064],[82.159,30.115],[82.135,30.159],[82.099,30.245],[82.043,30.327],[81.855,30.362],[81.642,30.388],[81.417,30.338],[81.255,30.093],[81.177,30.04],[81.11,30.037],[81.056,30.099],[81.01,30.165]]}},{"type":"Feature","properties":{},"geometry":{"type":"LineString","coordinates":[[97.323,28.218],[97.31,28.155],[97.303,28.086],[97.339,28.031],[97.344,27.982],[97.335,27.938],[97.306,27.907],[97.226,27.89],[97.158,27.837],[97.05,27.76],[96.963,27.698],[96.9,27.644],[96.877,27.587],[96.884,27.515],[96.902,27.44],[97.104,27.163],[97.102,27.115],[97.038,27.102],[96.953,27.133],[96.88,27.178],[96.798,27.296],[96.732,27.332],[96.666,27.339],[96.274,27.278],[96.191,27.261],[96.061,27.217],[95.971,27.128],[95.905,27.047],[95.837,27.014],[95.738,26.95],[95.464,26.756],[95.305,26.672],[95.201,26.641],[95.129,26.597],[95.089,26.526],[95.06,26.474],[95.051,26.347],[95.069,26.191],[95.108,26.091],[95.129,26.07],[95.132,26.041],[95.093,25.987],[95.041,25.941],[95.015,25.913],[94.992,25.77],[94.946,25.7],[94.861,25.597],[94.786,25.519],[94.668,25.459],[94.623,25.41],[94.58,25.32],[94.554,25.243],[94.553,25.216],[94.567,25.192],[94.616,25.165],[94.675,25.139],[94.704,25.098],[94.708,25.049],[94.663,24.931],[94.584,24.767],[94.493,24.638],[94.399,24.514],[94.377,24.474],[94.293,24.322],[94.22,24.113],[94.17,23.973],[94.128,23.876],[94.075,23.872],[94.011,23.903],[93.855,23.944],[93.756,23.977],[93.683,24.007],[93.633,24.005],[93.564,23.986],[93.494,23.973],[93.452,23.987],[93.356,24.074],[93.326,24.064],[93.307,24.022],[93.373,23.774],[93.415,23.682],[93.408,23.528],[93.391,23.339],[93.366,23.133],[93.349,23.085],[93.308,23.03],[93.253,23.015],[93.204,23.037],[93.164,23.032],[93.151,22.997],[93.163,22.908],[93.114,22.806],[93.079,22.718],[93.088,22.633],[93.105,22.547],[93.162,22.36],[93.162,22.292],[93.151,22.231],[93.121,22.205],[93.071,22.209],[93.043,22.184],[93.022,22.146],[92.965,22.004],[92.909,21.989],[92.854,22.01],[92.771,22.105],[92.721,22.132],[92.689,22.131],[92.675,22.106],[92.653,22.049],[92.63,22.011],[92.575,21.978]]}},{"type":"Feature","properties":{},"geometry":{"type":"LineString","coordinates":[[100.122,20.317],[100.004,20.38],[99.954,20.415],[99.89,20.424],[99.825,20.384],[99.773,20.341],[99.72,20.325],[99.639,20.32],[99.532,20.343],[99.459,20.363],[99.448,20.352],[99.487,20.261],[99.502,20.188],[99.486,20.15],[99.452,20.118],[99.399,20.093],[99.338,20.079],[99.284,20.08],[99.197,20.115],[99.131,20.117],[99.074,20.099],[99.04,20.074],[99.021,20.042],[98.987,19.861],[98.958,19.805],[98.917,19.773],[98.876,19.77],[98.82,19.778],[98.761,19.771],[98.494,19.701],[98.455,19.694],[98.371,19.689],[98.294,19.687],[98.239,19.691],[98.111,19.762],[98.049,19.77],[98.015,19.749],[97.991,19.654],[97.916,19.593],[97.817,19.46],[97.793,19.266],[97.804,19.13],[97.714,18.996],[97.706,18.932],[97.754,18.621],[97.746,18.588],[97.728,18.572],[97.672,18.561],[97.577,18.529],[97.515,18.498],[97.485,18.494],[97.397,18.518],[97.374,18.518],[97.381,18.494],[97.451,18.36],[97.524,18.296],[97.599,18.303],[97.632,18.29],[97.622,18.258],[97.652,18.174],[97.72,18.037],[97.74,17.935],[97.699,17.834],[97.706,17.797],[97.729,17.776],[97.793,17.681],[97.929,17.533],[98.063,17.373],[98.175,17.24],[98.257,17.148],[98.439,16.976],[98.471,16.895],[98.478,16.732],[98.523,16.638],[98.565,16.571],[98.594,16.515],[98.661,16.33],[98.689,16.305],[98.835,16.418],[98.869,16.394],[98.888,16.352],[98.889,16.298],[98.866,16.237],[98.818,16.181],[98.592,16.051],[98.574,15.939],[98.558,15.769],[98.554,15.56],[98.565,15.404],[98.557,15.368],[98.537,15.351],[98.452,15.357],[98.329,15.279],[98.286,15.272],[98.232,15.241],[98.191,15.204],[98.178,15.147],[98.202,14.976],[98.246,14.815],[98.332,14.696],[98.4,14.603],[98.495,14.473],[98.57,14.36],[98.721,14.236],[98.934,14.05],[99.015,13.947],[99.086,13.823],[99.137,13.717],[99.156,13.576],[99.172,13.497],[99.176,13.233],[99.137,13.173],[99.107,13.104],[99.124,13.031],[99.174,12.961],[99.174,12.882],[99.22,12.74],[99.297,12.653],[99.372,12.594],[99.405,12.548],[99.394,12.474],[99.416,12.395],[99.432,12.309],[99.463,12.19],[99.523,12.09],[99.615,11.781],[99.613,11.75],[99.573,11.687],[99.515,11.631],[99.478,11.612],[99.443,11.554],[99.359,11.389],[99.19,11.105],[99.025,10.92],[98.887,10.788],[98.787,10.708],[98.757,10.661],[98.757,10.624],[98.775,10.557],[98.768,10.431],[98.747,10.351],[98.718,10.266],[98.703,10.19]]}},{"type":"Feature","properties":{},"geometry":{"type":"MultiLineString","coordinates":[[[103.091,18.138],[103.092,18.141],[103.09,18.137],[103.091,18.138]],[[103.091,18.138],[103.149,18.222],[103.2,18.259],[103.263,18.278],[103.28,18.305],[103.249,18.339],[103.252,18.373],[103.288,18.408],[103.367,18.423],[103.488,18.418],[103.63,18.383],[103.792,18.316],[103.899,18.295],[103.95,18.319],[104.049,18.217],[104.196,17.988],[104.323,17.816],[104.428,17.699],[104.539,17.609],[104.656,17.547],[104.74,17.462],[104.816,17.3],[104.759,17.077],[104.744,16.884],[104.751,16.648],[104.819,16.466],[104.95,16.34],[105.026,16.238],[105.047,16.16],[105.149,16.094],[105.331,16.038],[105.406,15.987],[105.376,15.942],[105.373,15.89],[105.399,15.83],[105.462,15.78],[105.562,15.741],[105.622,15.7],[105.641,15.657],[105.639,15.586],[105.616,15.488],[105.574,15.413],[105.513,15.361],[105.506,15.32],[105.49,15.257],[105.49,15.128],[105.533,15.042],[105.547,14.932],[105.523,14.843],[105.5,14.661],[105.497,14.591],[105.476,14.53],[105.423,14.472],[105.342,14.417],[105.244,14.368],[105.183,14.346]],[[100.122,20.317],[100.115,20.258],[100.14,20.245],[100.174,20.273],[100.218,20.34],[100.266,20.377],[100.318,20.386],[100.373,20.34],[100.432,20.241],[100.492,20.184],[100.519,20.178],[100.54,20.132],[100.543,20.089],[100.515,19.996],[100.466,19.889],[100.398,19.756],[100.42,19.644],[100.514,19.553],[100.625,19.5],[100.744,19.515],[100.807,19.542],[100.858,19.585],[100.906,19.605],[100.966,19.611],[101.155,19.579],[101.212,19.548],[101.221,19.487],[101.198,19.328],[101.227,19.212],[101.28,19.089],[101.286,18.977],[101.221,18.793],[101.166,18.618],[101.106,18.534],[101.06,18.479],[101.047,18.442],[101.051,18.407],[101.093,18.355],[101.138,18.287],[101.149,18.222],[101.144,18.143],[101.113,18.034],[100.999,17.797],[100.908,17.584],[100.956,17.541],[101.046,17.51],[101.105,17.48],[101.168,17.499],[101.3,17.625],[101.414,17.719],[101.555,17.812],[101.564,17.821],[101.687,17.889],[101.744,17.953],[101.775,18.033],[101.819,18.065],[101.875,18.046],[101.947,18.081],[102.035,18.17],[102.101,18.211],[102.148,18.204],[102.232,18.149],[102.352,18.046],[102.459,17.985],[102.553,17.965],[102.598,17.927],[102.596,17.87],[102.617,17.833],[102.661,17.818],[102.68,17.824],[102.675,17.852],[102.718,17.892],[102.807,17.946],[102.899,17.977],[102.991,17.986],[103.051,18.029],[103.091,18.138]]]}},{"type":"Feature","properties":{},"geometry":{"type":"LineString","coordinates":[[101.139,21.567],[101.08,21.469],[100.928,21.366],[100.82,21.314],[100.757,21.313],[100.703,21.251],[100.659,21.13],[100.614,21.059],[100.567,21.038],[100.536,20.992],[100.522,20.922],[100.549,20.884],[100.618,20.879],[100.623,20.86],[100.565,20.825],[100.493,20.813],[100.407,20.823],[100.326,20.796],[100.249,20.73],[100.184,20.589],[100.13,20.372],[100.122,20.317]]}},{"type":"Feature","properties":{},"geometry":{"type":"LineString","coordinates":[[97.323,28.218],[97.356,28.255],[97.431,28.354],[97.478,28.426],[97.502,28.456],[97.538,28.51],[97.599,28.517],[97.659,28.5],[97.695,28.469],[97.73,28.407],[97.769,28.356],[97.816,28.356],[97.865,28.364],[97.888,28.356],[97.934,28.314],[98.022,28.212],[98.062,28.186],[98.099,28.142],[98.118,28.055],[98.13,27.968],[98.241,27.663],[98.274,27.599],[98.299,27.55],[98.35,27.538],[98.392,27.587],[98.409,27.639],[98.453,27.657],[98.505,27.648],[98.6,27.599],[98.651,27.572],[98.677,27.422],[98.682,27.245],[98.675,27.191],[98.716,27.045],[98.73,26.877],[98.739,26.786],[98.739,26.698],[98.732,26.583],[98.709,26.43],[98.672,26.299],[98.686,26.189],[98.663,26.139],[98.572,26.114],[98.564,26.072],[98.591,26.004],[98.655,25.918],[98.656,25.864],[98.625,25.827],[98.558,25.823],[98.466,25.789],[98.402,25.678],[98.334,25.587],[98.297,25.569],[98.173,25.595],[98.143,25.571],[98.1,25.416],[98.064,25.349],[98.011,25.293],[97.962,25.259],[97.918,25.236],[97.819,25.252],[97.767,25.158],[97.715,25.034],[97.711,24.97],[97.738,24.87],[97.724,24.842],[97.671,24.82],[97.583,24.775],[97.529,24.631],[97.531,24.492],[97.563,24.444],[97.624,24.423],[97.667,24.38],[97.671,24.313],[97.708,24.229],[97.691,24.131],[97.568,23.988],[97.565,23.911],[97.63,23.887],[97.686,23.898],[97.756,23.932],[97.838,23.986],[98.017,24.065],[98.213,24.111],[98.367,24.119],[98.499,24.116],[98.564,24.099],[98.583,24.07],[98.764,24.116],[98.802,24.119],[98.835,24.121],[98.834,24.091],[98.702,23.964],[98.677,23.905],[98.681,23.842],[98.735,23.783],[98.788,23.738],[98.832,23.624],[98.798,23.52],[98.82,23.483],[98.859,23.44],[98.883,23.38],[98.886,23.307],[98.864,23.191],[99.055,23.131],[99.22,23.103],[99.341,23.096],[99.418,23.069],[99.465,23.046],[99.497,23.005],[99.507,22.959],[99.467,22.927],[99.385,22.825],[99.338,22.689],[99.343,22.587],[99.338,22.498],[99.243,22.37],[99.205,22.283],[99.172,22.192],[99.173,22.153],[99.193,22.126],[99.233,22.11],[99.303,22.101],[99.389,22.111],[99.593,22.089],[99.825,22.05],[99.918,22.028],[99.948,21.988],[99.94,21.902],[99.926,21.821],[99.941,21.759],[99.978,21.702],[100.041,21.683],[100.096,21.661],[100.106,21.617],[100.089,21.558],[100.117,21.511],[100.148,21.481],[100.215,21.463],[100.351,21.501],[100.446,21.484],[100.531,21.458],[100.605,21.472],[100.677,21.505],[100.835,21.655],[101.019,21.736],[101.08,21.756],[101.121,21.746],[101.131,21.736],[101.128,21.705],[101.147,21.582],[101.139,21.567]]}},{"type":"Feature","properties":{},"geometry":{"type":"LineString","coordinates":[[102.127,22.379],[102.183,22.284],[102.301,22.178],[102.443,22.027],[102.487,21.958],[102.583,21.904],[102.61,21.852],[102.631,21.771],[102.641,21.711],[102.662,21.676],[102.695,21.662],[102.739,21.678],[102.771,21.71],[102.798,21.798],[102.816,21.807],[102.845,21.735],[102.876,21.722],[102.918,21.713],[102.95,21.681],[102.959,21.626],[102.949,21.57],[102.91,21.506],[102.887,21.44],[102.872,21.338],[102.851,21.266],[102.884,21.203],[103.104,20.892],[103.211,20.841],[103.464,20.78],[103.555,20.738],[103.635,20.697],[103.714,20.717],[103.79,20.81],[103.882,20.861],[104.052,20.941],[104.101,20.945],[104.195,20.914],[104.35,20.821],[104.461,20.734],[104.53,20.688],[104.583,20.647],[104.575,20.6],[104.533,20.555],[104.479,20.53],[104.408,20.486],[104.368,20.441],[104.392,20.425],[104.496,20.414],[104.619,20.374],[104.656,20.329],[104.662,20.289],[104.677,20.225],[104.699,20.205],[104.813,20.217],[104.848,20.202],[104.889,20.169],[104.929,20.083],[104.928,20.018],[104.846,19.947],[104.815,19.904],[104.802,19.836],[104.743,19.755],[104.588,19.619],[104.546,19.611],[104.26,19.686],[104.127,19.681],[104.063,19.678],[104.032,19.675],[104.013,19.646],[104.052,19.564],[104.063,19.483],[104.028,19.42],[103.932,19.366],[103.896,19.34],[103.892,19.305],[103.918,19.269],[104.006,19.231],[104.109,19.196],[104.446,18.984],[104.518,18.934],[104.613,18.861],[104.717,18.803],[104.993,18.728],[105.115,18.679],[105.146,18.651],[105.145,18.617],[105.114,18.573],[105.087,18.496],[105.086,18.45],[105.115,18.405],[105.163,18.339],[105.273,18.235],[105.333,18.19],[105.4,18.179],[105.458,18.154],[105.519,18.077],[105.589,17.984],[105.598,17.918],[105.627,17.834],[105.691,17.738],[105.78,17.644],[105.903,17.529],[105.974,17.447],[106.006,17.415],[106.27,17.217],[106.333,17.144],[106.426,17.003],[106.465,16.982],[106.502,16.954],[106.526,16.877],[106.534,16.821],[106.546,16.651],[106.594,16.6],[106.638,16.538],[106.656,16.493],[106.696,16.459],[106.74,16.453],[106.792,16.49],[106.832,16.526],[106.851,16.516],[106.893,16.397],[106.931,16.353],[107.002,16.312],[107.07,16.28],[107.217,16.136],[107.296,16.084],[107.35,16.067],[107.396,16.043],[107.41,15.998],[107.392,15.952],[107.361,15.922],[107.189,15.839],[107.166,15.802],[107.19,15.747],[107.233,15.678],[107.279,15.619],[107.339,15.56],[107.46,15.466],[107.564,15.392],[107.622,15.31],[107.653,15.255],[107.634,15.19],[107.59,15.118],[107.555,15.057],[107.496,15.021],[107.48,14.98],[107.505,14.916],[107.524,14.872],[107.514,14.817],[107.519,14.705]]}},{"type":"Feature","properties":{},"geometry":{"type":"LineString","coordinates":[[35.268,5.492],[35.252,5.511],[35.164,5.581],[35.082,5.673],[35.032,5.775],[34.984,5.858],[34.959,6.045],[34.898,6.16],[34.838,6.3],[34.749,6.568],[34.711,6.66],[34.639,6.722],[34.563,6.78],[34.484,6.898],[34.279,7.003],[34.2,7.085],[34.064,7.226],[34.03,7.297],[34.02,7.368],[33.978,7.435],[33.902,7.51],[33.666,7.671],[33.601,7.69],[33.516,7.708],[33.392,7.724],[33.226,7.761],[33.081,7.824],[33.015,7.869],[32.999,7.9],[33.013,7.952],[33.065,8.04],[33.165,8.251],[33.234,8.396],[33.281,8.437],[33.409,8.448],[33.545,8.443],[33.645,8.433],[33.785,8.431],[33.953,8.443],[34.02,8.492],[34.073,8.545],[34.095,8.582],[34.102,8.676],[34.102,8.752],[34.091,9.041],[34.085,9.219],[34.077,9.421],[34.078,9.461]]}},{"type":"Feature","properties":{},"geometry":{"type":"LineString","coordinates":[[41.884,3.978],[41.738,3.979],[41.482,3.963],[41.372,3.946],[41.319,3.943],[41.221,3.944],[41.14,3.963],[41.087,3.992],[41.021,4.057],[40.873,4.19],[40.765,4.273],[40.529,4.178],[40.316,4.083],[40.014,3.948],[39.842,3.851],[39.79,3.754],[39.658,3.578],[39.539,3.469],[39.494,3.456],[39.225,3.479],[39.128,3.501],[38.968,3.521],[38.753,3.559],[38.608,3.6],[38.452,3.605],[38.225,3.619],[38.086,3.649],[37.945,3.747],[37.763,3.865],[37.575,3.986],[37.383,4.111],[37.155,4.255],[36.906,4.411],[36.848,4.427],[36.824,4.43],[36.553,4.437],[36.272,4.445],[36.082,4.45],[36.022,4.468],[35.979,4.504],[35.92,4.62]]}},{"type":"Feature","properties":{},"geometry":{"type":"LineString","coordinates":[[36.524,14.257],[36.492,14.544],[36.471,14.736],[36.448,14.94],[36.427,15.132],[36.522,15.25],[36.566,15.362],[36.679,15.726],[36.725,15.799],[36.813,15.994],[36.826,16.05],[36.914,16.296],[36.905,16.46],[36.888,16.625],[36.936,16.722],[36.979,16.801],[36.976,16.867],[36.995,17.021],[37.009,17.059],[37.061,17.061],[37.169,17.041],[37.249,17.057],[37.34,17.057],[37.411,17.062],[37.453,17.109],[37.51,17.288],[37.547,17.324],[37.576,17.335],[37.657,17.368],[37.726,17.421],[37.782,17.458],[37.803,17.466],[37.863,17.47],[37.923,17.492],[37.95,17.518],[38.025,17.538],[38.099,17.526],[38.149,17.549],[38.182,17.563],[38.219,17.564],[38.254,17.585],[38.267,17.617],[38.29,17.637],[38.347,17.684],[38.374,17.717],[38.385,17.751],[38.397,17.778],[38.422,17.824],[38.523,17.939],[38.609,18.005]]}},{"type":"Feature","properties":{},"geometry":{"type":"LineString","coordinates":[[42.378,12.466],[42.29,12.57],[42.225,12.662],[42.134,12.771],[42.047,12.821],[41.952,12.882],[41.86,13.026],[41.765,13.184],[41.625,13.313],[41.363,13.5],[41.122,13.736],[40.939,13.983],[40.82,14.112],[40.77,14.144],[40.524,14.225],[40.353,14.338],[40.221,14.431],[40.141,14.456],[40.062,14.459],[39.895,14.441],[39.756,14.499],[39.698,14.499],[39.605,14.516],[39.532,14.537],[39.446,14.512],[39.27,14.47],[39.198,14.479],[39.159,14.538],[39.135,14.582],[39.074,14.628],[39.024,14.628],[38.996,14.587],[38.812,14.482],[38.504,14.424],[38.431,14.429],[38.377,14.47],[38.221,14.65],[38.177,14.679],[38.142,14.681],[38.07,14.703],[38.003,14.737],[37.943,14.811],[37.884,14.852],[37.82,14.708],[37.708,14.457],[37.648,14.323],[37.571,14.149],[37.547,14.144],[37.507,14.156],[37.354,14.372],[37.257,14.454],[37.185,14.446],[37.133,14.406],[37.099,14.334],[37.064,14.289],[37.025,14.272],[36.941,14.281],[36.812,14.315],[36.679,14.308],[36.542,14.258],[36.524,14.257]]}},{"type":"Feature","properties":{},"geometry":{"type":"LineString","coordinates":[[74.306,32.81],[74.355,32.769],[74.483,32.771],[74.588,32.753],[74.632,32.771],[74.663,32.758],[74.643,32.608],[74.658,32.519],[74.686,32.494],[74.789,32.458],[74.987,32.462],[75.104,32.42],[75.234,32.372],[75.303,32.319],[75.304,32.318]]}},{"type":"Feature","properties":{},"geometry":{"type":"LineString","coordinates":[[48.442,28.543],[48.269,28.541],[48.05,28.538],[47.872,28.535],[47.671,28.533],[47.583,28.628],[47.553,28.732],[47.521,28.838],[47.433,28.99],[47.139,29.026],[46.982,29.046],[46.725,29.075],[46.531,29.096]]}},{"type":"Feature","properties":{},"geometry":{"type":"LineString","coordinates":[[44.765,37.142],[44.765,37.135],[44.798,37.064],[44.881,36.799],[44.928,36.766],[44.981,36.738],[45.019,36.698],[45.034,36.659],[45.029,36.598],[45.031,36.526],[45.053,36.472],[45.084,36.43],[45.112,36.409],[45.155,36.407],[45.207,36.397],[45.241,36.356],[45.351,36.055],[45.362,36.015],[45.408,36.003],[45.484,36.009],[45.562,35.977],[45.645,35.928],[45.723,35.837],[45.776,35.822],[45.941,35.835],[46.167,35.821],[46.273,35.773],[46.262,35.744],[46.181,35.711],[46.037,35.673],[45.995,35.608],[45.971,35.524],[45.975,35.477],[46.011,35.425],[46.112,35.322],[46.118,35.284],[46.136,35.232],[46.155,35.197],[46.134,35.128],[46.042,35.08],[45.921,35.029],[45.678,34.798],[45.66,34.749],[45.662,34.613],[45.637,34.574],[45.561,34.575],[45.501,34.582],[45.498,34.534],[45.459,34.47],[45.438,34.415],[45.527,34.285],[45.543,34.216],[45.529,34.153],[45.446,34.044],[45.397,33.971],[45.409,33.955],[45.473,33.925],[45.674,33.687],[45.738,33.603],[45.823,33.625],[45.854,33.623],[45.879,33.61],[45.895,33.582],[45.895,33.546],[45.873,33.492],[45.981,33.47],[46.02,33.416],[46.146,33.23],[46.141,33.174],[46.081,33.087],[46.08,33.028],[46.093,32.976],[46.113,32.958],[46.298,32.95],[46.377,32.929],[46.57,32.834],[46.789,32.688],[46.969,32.568],[47.121,32.467],[47.285,32.474],[47.33,32.456],[47.371,32.424],[47.418,32.34],[47.512,32.151],[47.591,32.088],[47.715,31.936],[47.83,31.794],[47.754,31.601],[47.679,31.401],[47.679,31.142],[47.679,31.002],[47.836,30.996],[48.011,30.99],[48.012,30.824],[48.013,30.656],[48.015,30.466],[48.066,30.458],[48.148,30.417],[48.182,30.355],[48.226,30.321],[48.279,30.316],[48.331,30.285],[48.383,30.23],[48.401,30.188],[48.388,30.16],[48.399,30.11],[48.435,30.038],[48.479,30.004],[48.547,29.962]]}},{"type":"Feature","properties":{},"geometry":{"type":"LineString","coordinates":[[24.98,21.996],[25.362,21.996],[25.744,21.996],[26.126,21.996],[26.508,21.996],[26.89,21.996],[27.272,21.996],[27.654,21.995],[28.036,21.995],[28.419,21.995],[28.801,21.995],[29.183,21.995],[29.565,21.995],[29.947,21.995],[30.329,21.995],[30.711,21.995],[31.093,21.995],[31.209,21.995],[31.261,22.002],[31.359,22.189],[31.4,22.202],[31.464,22.191],[31.486,22.148],[31.466,22.085],[31.434,21.996],[31.622,21.996],[31.95,21.996],[32.278,21.996],[32.606,21.996],[32.934,21.996],[33.262,21.996],[33.59,21.996],[33.918,21.996],[34.247,21.996],[34.575,21.996],[34.903,21.996],[35.231,21.996],[35.559,21.996],[35.887,21.997],[36.215,21.997],[36.543,21.997],[36.871,21.997]]}},{"type":"Feature","properties":{},"geometry":{"type":"LineString","coordinates":[[41.884,3.978],[41.761,3.802],[41.613,3.59],[41.342,3.202],[41.135,2.997],[40.979,2.842],[40.964,2.815],[40.965,2.642],[40.967,2.221],[40.968,1.8],[40.97,1.378],[40.972,0.957],[40.973,0.535],[40.975,0.114],[40.977,-0.307],[40.978,-0.729],[40.979,-0.87],[41.116,-1.047],[41.25,-1.221],[41.427,-1.449],[41.522,-1.572],[41.538,-1.613],[41.533,-1.695]]}},{"type":"Feature","properties":{},"geometry":{"type":"LineString","coordinates":[[42.923,10.999],[42.906,10.96],[42.863,10.903],[42.81,10.846],[42.763,10.787],[42.66,10.621],[42.656,10.6],[42.669,10.568],[42.725,10.492],[42.784,10.37],[42.816,10.257],[42.842,10.203],[42.912,10.141],[43.015,10.013],[43.069,9.926],[43.182,9.88],[43.218,9.77],[43.303,9.609],[43.394,9.48],[43.483,9.379],[43.581,9.341],[43.621,9.337],[43.827,9.151],[43.984,9.009],[44.023,8.986],[44.306,8.893],[44.632,8.786],[44.894,8.7],[45.227,8.591],[45.555,8.483],[45.863,8.38],[46.296,8.235],[46.645,8.118],[46.92,8.026],[46.978,7.997],[47.306,7.997],[47.638,7.997],[47.978,7.997]]}},{"type":"Feature","properties":{},"geometry":{"type":"LineString","coordinates":[[33.903,-1.002],[33.979,-1.002],[34.052,-1.04],[34.132,-1.085],[34.345,-1.204],[34.558,-1.323],[34.771,-1.442],[34.984,-1.561],[35.197,-1.68],[35.411,-1.799],[35.624,-1.918],[35.837,-2.037],[36.05,-2.156],[36.263,-2.275],[36.476,-2.394],[36.689,-2.513],[36.903,-2.632],[37.116,-2.751],[37.329,-2.87],[37.542,-2.989],[37.644,-3.045],[37.659,-3.07],[37.677,-3.178],[37.688,-3.246],[37.682,-3.306],[37.625,-3.407],[37.609,-3.46],[37.608,-3.497],[37.622,-3.512],[37.67,-3.517],[37.711,-3.541],[37.726,-3.56],[37.757,-3.636],[37.797,-3.674],[37.887,-3.739],[38.041,-3.85],[38.194,-3.96],[38.348,-4.071],[38.501,-4.181],[38.655,-4.292],[38.808,-4.402],[38.962,-4.513],[39.115,-4.623],[39.19,-4.677],[39.222,-4.692]]}},{"type":"Feature","properties":{},"geometry":{"type":"LineString","coordinates":[[42.799,16.372],[42.986,16.509],[43.034,16.55],[43.061,16.587],[43.105,16.664],[43.165,16.689],[43.186,16.771],[43.184,16.812],[43.146,16.847],[43.116,16.942],[43.126,17.062],[43.136,17.113],[43.156,17.205],[43.221,17.239],[43.237,17.266],[43.186,17.325],[43.191,17.359],[43.302,17.457],[43.346,17.486],[43.418,17.516],[43.474,17.516],[43.539,17.499],[43.597,17.471],[43.653,17.422],[43.713,17.366],[43.804,17.344],[43.866,17.35],[43.917,17.325],[43.96,17.338],[44.008,17.367],[44.086,17.366],[44.156,17.399],[44.355,17.414],[44.546,17.404],[44.747,17.432],[44.946,17.43],[45.148,17.427],[45.193,17.423],[45.237,17.406],[45.407,17.32],[45.535,17.302],[45.794,17.278],[46.071,17.253],[46.31,17.231],[46.513,17.252],[46.682,17.269],[46.728,17.266],[46.779,17.212],[46.88,17.079],[46.976,16.953],[47.144,16.947],[47.251,16.994],[47.37,17.06],[47.442,17.112],[47.525,17.316],[47.58,17.448],[47.704,17.597],[47.808,17.721],[47.946,17.886],[48.022,17.977],[48.172,18.157],[48.316,18.227],[48.593,18.362],[48.865,18.495],[49.042,18.582],[49.192,18.621],[49.445,18.655],[49.742,18.695],[50.039,18.735],[50.355,18.778],[50.708,18.825],[50.95,18.858],[51.258,18.899],[51.515,18.934],[51.743,18.965],[51.978,18.996]]}},{"type":"Feature","properties":{},"geometry":{"type":"LineString","coordinates":[[51.978,18.996],[52.022,18.896],[52.066,18.796],[52.11,18.696],[52.155,18.597],[52.199,18.497],[52.243,18.397],[52.287,18.297],[52.332,18.197],[52.376,18.097],[52.42,17.997],[52.465,17.897],[52.509,17.798],[52.553,17.698],[52.597,17.598],[52.642,17.498],[52.686,17.398],[52.729,17.3],[52.801,17.268],[52.843,17.176],[52.904,17.044],[52.964,16.912],[53.025,16.78],[53.086,16.648]]}},{"type":"Feature","properties":{},"geometry":{"type":"LineString","coordinates":[[55.186,22.704],[55.259,22.591],[55.32,22.497],[55.404,22.368],[55.493,22.231],[55.578,22.1],[55.641,22.002],[55.607,21.9],[55.571,21.79],[55.534,21.679],[55.498,21.568],[55.461,21.458],[55.424,21.347],[55.388,21.236],[55.351,21.126],[55.314,21.015],[55.278,20.904],[55.241,20.793],[55.205,20.683],[55.168,20.572],[55.131,20.461],[55.095,20.351],[55.058,20.24],[55.022,20.129],[54.977,19.996],[54.871,19.96],[54.699,19.903],[54.527,19.846],[54.355,19.788],[54.183,19.731],[54.011,19.674],[53.839,19.616],[53.667,19.559],[53.495,19.502],[53.323,19.444],[53.151,19.387],[52.979,19.33],[52.807,19.272],[52.635,19.215],[52.463,19.158],[52.291,19.1],[52.119,19.043],[51.978,18.996]]}},{"type":"Feature","properties":{},"geometry":{"type":"LineString","coordinates":[[55.186,22.704],[55.119,22.624],[55.104,22.621],[55.025,22.631],[54.998,22.634],[54.923,22.644],[54.805,22.658],[54.652,22.677],[54.472,22.699],[54.27,22.723],[54.055,22.75],[53.832,22.777],[53.61,22.804],[53.394,22.83],[53.192,22.855],[53.012,22.877],[52.859,22.896],[52.742,22.91],[52.666,22.919],[52.639,22.923],[52.555,22.933],[52.51,22.987],[52.455,23.052],[52.4,23.118],[52.345,23.183],[52.29,23.249],[52.235,23.314],[52.179,23.38],[52.124,23.445],[52.069,23.511],[52.014,23.576],[51.959,23.642],[51.904,23.707],[51.849,23.773],[51.794,23.838],[51.739,23.904],[51.684,23.97],[51.629,24.035],[51.593,24.079],[51.572,24.128],[51.568,24.258],[51.568,24.286]]}},{"type":"Feature","properties":{},"geometry":{"type":"LineString","coordinates":[[42.359,37.109],[42.359,37.095],[42.35,37.061],[42.237,36.961],[42.084,36.826],[41.974,36.741],[41.789,36.597],[41.65,36.566],[41.417,36.515],[41.354,36.464],[41.296,36.383],[41.262,36.272],[41.252,36.203],[41.246,36.073],[41.3,35.939],[41.353,35.81],[41.359,35.725],[41.354,35.64],[41.303,35.551],[41.248,35.428],[41.216,35.288],[41.2,35.027],[41.199,34.805],[41.195,34.769],[41.099,34.612],[40.987,34.429],[40.935,34.387],[40.689,34.332],[40.422,34.198],[40.122,34.048],[39.85,33.911],[39.564,33.768],[39.268,33.62],[39.057,33.514],[38.774,33.372]]}},{"type":"Feature","properties":{},"geometry":{"type":"LineString","coordinates":[[35.787,32.735],[35.895,32.714],[35.956,32.667],[36.059,32.534],[36.22,32.495],[36.284,32.457],[36.372,32.387],[36.479,32.361],[36.818,32.317],[37.089,32.466],[37.318,32.591],[37.577,32.733],[37.754,32.83],[38.056,32.995],[38.254,33.099],[38.516,33.237],[38.774,33.372]]}},{"type":"Feature","properties":{},"geometry":{"type":"LineString","coordinates":[[35.611,32.682],[35.734,32.729],[35.787,32.735]]}},{"type":"Feature","properties":{},"geometry":{"type":"LineString","coordinates":[[39.145,32.124],[39.293,32.244],[39.247,32.351],[39.14,32.331],[39.041,32.306],[38.982,32.473],[39.058,32.493],[38.987,32.711],[38.915,32.935],[38.845,33.151],[38.774,33.372]]}},{"type":"Feature","properties":{},"geometry":{"type":"LineString","coordinates":[[34.951,29.354],[35.164,29.321],[35.339,29.294],[35.595,29.255],[35.86,29.214],[36.015,29.19],[36.068,29.201],[36.283,29.355],[36.476,29.495],[36.592,29.666],[36.704,29.832],[36.755,29.866],[36.927,29.897],[37.199,29.946],[37.469,29.995],[37.491,30.012],[37.554,30.145],[37.634,30.313],[37.65,30.331],[37.67,30.348],[37.863,30.443],[37.98,30.5],[37.813,30.669],[37.656,30.829],[37.479,31.008],[37.329,31.147],[37.105,31.355],[36.959,31.492],[37.216,31.556],[37.493,31.626],[37.774,31.696],[38.111,31.781],[38.376,31.847],[38.77,31.946],[38.962,31.995],[38.997,32.007],[39.145,32.124]]}},{"type":"Feature","properties":{},"geometry":{"type":"LineString","coordinates":[[46.531,29.096],[46.356,29.064],[45.95,29.096],[45.499,29.132],[45.05,29.167],[44.716,29.194],[44.691,29.202],[44.361,29.435],[44.1,29.619],[43.774,29.849],[43.441,30.084],[43.103,30.322],[42.858,30.495],[42.56,30.718],[42.289,30.92],[42.074,31.08],[41.8,31.22],[41.585,31.33],[41.272,31.489],[41.022,31.616],[40.808,31.725],[40.479,31.893],[40.369,31.939],[40.028,31.995],[39.704,32.043],[39.369,32.092],[39.145,32.124]]}},{"type":"Feature","properties":{},"geometry":{"type":"LineString","coordinates":[[61.588,25.202],[61.615,25.286],[61.64,25.585],[61.671,25.692],[61.662,25.751],[61.669,25.769],[61.738,25.821],[61.754,25.843],[61.781,25.996],[61.81,26.165],[61.842,26.226],[61.87,26.242],[62.089,26.318],[62.126,26.369],[62.239,26.357],[62.25,26.369],[62.26,26.427],[62.312,26.491],[62.385,26.543],[62.439,26.561],[62.636,26.594],[62.752,26.639],[62.787,26.644],[63.093,26.632],[63.158,26.65],[63.168,26.666],[63.186,26.838],[63.242,26.865],[63.25,26.879],[63.231,26.998],[63.242,27.078],[63.305,27.125],[63.302,27.151],[63.256,27.208],[63.196,27.244],[63.167,27.252],[62.915,27.218],[62.812,27.229],[62.763,27.25],[62.753,27.266],[62.763,27.3],[62.764,27.357],[62.801,27.445],[62.812,27.497],[62.782,27.801],[62.74,28.002],[62.763,28.202],[62.758,28.244],[62.749,28.253],[62.718,28.253],[62.565,28.235],[62.434,28.364],[62.353,28.415],[62.131,28.479],[62.033,28.491],[61.89,28.547],[61.758,28.668],[61.623,28.792],[61.569,28.871],[61.509,29.006],[61.338,29.265],[61.339,29.332],[61.318,29.373],[61.152,29.543],[61.034,29.663],[60.843,29.859]]}},{"type":"Feature","properties":{},"geometry":{"type":"LineString","coordinates":[[60.843,29.859],[61.104,30.128],[61.332,30.364],[61.559,30.599],[61.784,30.832],[61.811,30.913],[61.814,31.073],[61.755,31.285],[61.66,31.382],[61.346,31.422],[61.111,31.451],[60.854,31.483],[60.821,31.495],[60.792,31.661],[60.804,31.734],[60.788,31.877],[60.79,31.987],[60.827,32.168],[60.829,32.249],[60.71,32.6],[60.644,32.794],[60.577,32.995],[60.562,33.059],[60.561,33.138],[60.718,33.324],[60.767,33.364],[60.859,33.456],[60.917,33.505],[60.907,33.539],[60.806,33.559],[60.655,33.56],[60.574,33.588],[60.511,33.639],[60.486,33.712],[60.527,33.842],[60.486,34.095],[60.57,34.22],[60.643,34.307],[60.889,34.319],[60.804,34.418],[60.763,34.475],[60.736,34.492],[60.726,34.518],[60.739,34.545],[60.802,34.555],[60.845,34.588],[60.915,34.634],[60.951,34.654],[60.958,34.71],[60.991,34.75],[61.04,34.799],[61.08,34.856],[61.07,34.922],[61.107,35.001],[61.123,35.051],[61.15,35.094],[61.126,35.157],[61.107,35.209],[61.1,35.272],[61.14,35.289],[61.189,35.312],[61.199,35.362],[61.226,35.424],[61.245,35.474],[61.279,35.514],[61.282,35.553],[61.262,35.62]]}},{"type":"Feature","properties":{},"geometry":{"type":"LineString","coordinates":[[60.843,29.859],[61.224,29.749],[61.521,29.666],[62.001,29.53],[62.373,29.425],[62.477,29.408],[63.568,29.498],[63.971,29.43],[64.099,29.392],[64.118,29.414],[64.172,29.46],[64.266,29.507],[64.394,29.544],[64.521,29.565],[64.704,29.567],[64.827,29.564],[64.919,29.553],[65.095,29.559],[65.18,29.578],[65.471,29.652],[65.666,29.701],[65.962,29.779],[66.177,29.836],[66.231,29.866],[66.287,29.92],[66.313,29.969],[66.247,30.043],[66.238,30.11],[66.282,30.193],[66.305,30.321],[66.301,30.503],[66.287,30.608],[66.347,30.803],[66.397,30.912],[66.497,30.965],[66.567,30.997],[66.596,31.02],[66.624,31.046],[66.731,31.195],[66.829,31.264],[66.924,31.306],[67.028,31.3],[67.116,31.243],[67.287,31.218],[67.453,31.235],[67.596,31.278],[67.661,31.313],[67.738,31.344],[67.733,31.379],[67.647,31.41],[67.598,31.453],[67.578,31.506],[67.627,31.539],[67.74,31.548],[68.017,31.678],[68.13,31.763],[68.161,31.803],[68.214,31.807],[68.32,31.768],[68.443,31.754],[68.521,31.794],[68.598,31.803],[68.673,31.76],[68.714,31.708],[68.782,31.646],[68.869,31.634],[68.973,31.667],[69.083,31.738],[69.187,31.838],[69.279,31.937],[69.257,32.249],[69.241,32.434],[69.29,32.531],[69.359,32.59],[69.405,32.683],[69.405,32.764],[69.453,32.833],[69.502,33.02],[69.568,33.064],[69.704,33.095],[69.92,33.112],[70.09,33.198],[70.261,33.289],[70.284,33.369],[70.22,33.455],[70.134,33.621],[70.057,33.72],[69.868,33.898],[69.89,34.007],[69.995,34.052],[70.254,33.976],[70.326,33.961],[70.416,33.95],[70.654,33.952],[70.848,33.982],[71.052,34.05],[71.091,34.12],[71.089,34.204],[71.092,34.273],[71.096,34.369],[71.023,34.431],[70.979,34.486],[70.966,34.53],[71.016,34.555],[71.066,34.6],[71.113,34.682],[71.226,34.78],[71.294,34.868],[71.358,34.91],[71.455,34.967],[71.517,35.051],[71.545,35.101],[71.602,35.151],[71.62,35.183],[71.605,35.212],[71.577,35.248],[71.545,35.289],[71.545,35.329],[71.572,35.37],[71.601,35.408],[71.587,35.461],[71.572,35.547],[71.519,35.598],[71.484,35.715],[71.428,35.834],[71.398,35.88],[71.343,35.939],[71.22,36.001],[71.185,36.042],[71.233,36.122],[71.313,36.171],[71.463,36.293],[71.546,36.378],[71.62,36.436],[71.716,36.427],[71.773,36.432],[71.822,36.486],[71.921,36.534],[72.096,36.634],[72.157,36.701],[72.25,36.735],[72.327,36.742],[72.431,36.766],[72.531,36.802],[72.623,36.83],[72.766,36.835],[72.994,36.852],[73.117,36.869],[73.411,36.882],[73.732,36.888]]}},{"type":"Feature","properties":{},"geometry":{"type":"LineString","coordinates":[[56.08,26.063],[56.117,26.068],[56.167,26.047],[56.173,25.945],[56.154,25.849],[56.152,25.746],[56.145,25.691],[56.184,25.645],[56.25,25.625],[56.279,25.628],[56.298,25.651]]}},{"type":"Feature","properties":{},"geometry":{"type":"LineString","coordinates":[[92.575,21.978],[92.561,22.048],[92.532,22.41],[92.51,22.526],[92.491,22.685],[92.464,22.734],[92.43,22.822],[92.393,22.897],[92.362,22.929],[92.341,23.07],[92.334,23.242],[92.334,23.324],[92.289,23.492],[92.246,23.684],[92.187,23.676],[92.152,23.722],[92.127,23.721],[92.044,23.678],[91.979,23.692],[91.93,23.686],[91.93,23.598],[91.938,23.505],[91.919,23.471],[91.79,23.361],[91.754,23.287],[91.758,23.21],[91.774,23.106],[91.751,23.054],[91.695,23.005],[91.62,22.98],[91.554,22.992],[91.511,23.034],[91.471,23.141],[91.436,23.2],[91.399,23.214],[91.371,23.198],[91.367,23.13],[91.369,23.075],[91.359,23.068],[91.339,23.077],[91.315,23.104],[91.254,23.374],[91.166,23.581],[91.16,23.661],[91.193,23.763],[91.232,23.92],[91.336,24.019],[91.35,24.06],[91.367,24.094],[91.393,24.1],[91.526,24.091],[91.571,24.107],[91.611,24.153],[91.669,24.19],[91.727,24.205],[91.773,24.211],[91.846,24.175],[91.877,24.195],[91.899,24.261],[91.931,24.326],[91.952,24.357],[92.001,24.371],[92.064,24.374],[92.085,24.386],[92.102,24.408],[92.118,24.494],[92.198,24.686],[92.227,24.771],[92.231,24.786],[92.228,24.881],[92.251,24.895],[92.385,24.849],[92.443,24.849],[92.475,24.869],[92.485,24.903],[92.468,24.944],[92.373,25.015],[92.205,25.111],[92.05,25.169],[91.764,25.161],[91.48,25.142],[91.397,25.152],[91.293,25.178],[91.038,25.174],[90.73,25.159],[90.613,25.168],[90.555,25.167],[90.439,25.158],[90.25,25.185],[90.12,25.22],[90.004,25.258],[89.866,25.293],[89.833,25.293],[89.814,25.305],[89.801,25.336],[89.796,25.376],[89.825,25.56],[89.8,25.84],[89.823,25.941],[89.71,26.171],[89.671,26.214],[89.619,26.216],[89.586,26.186],[89.573,26.132],[89.591,26.072],[89.55,26.005],[89.467,25.984],[89.37,26.006],[89.289,26.038],[89.186,26.106],[89.108,26.202],[89.102,26.308],[89.067,26.377],[89.019,26.41],[88.983,26.42],[88.952,26.412],[88.924,26.375],[88.948,26.338],[88.982,26.286],[88.97,26.251],[88.941,26.245],[88.897,26.261],[88.828,26.252],[88.762,26.279],[88.722,26.282],[88.683,26.292],[88.681,26.353],[88.62,26.431],[88.518,26.518],[88.418,26.572],[88.37,26.564],[88.346,26.505],[88.351,26.483],[88.386,26.472],[88.437,26.437],[88.448,26.401],[88.44,26.37],[88.378,26.312],[88.334,26.258],[88.235,26.178],[88.151,26.087],[88.129,26.018],[88.097,25.956],[88.085,25.888],[88.107,25.841],[88.147,25.811],[88.253,25.79],[88.363,25.698],[88.452,25.574],[88.502,25.537],[88.593,25.495],[88.769,25.49],[88.795,25.456],[88.82,25.366],[88.855,25.334],[88.944,25.291],[88.952,25.259],[88.93,25.223],[88.89,25.194],[88.817,25.176],[88.748,25.169],[88.678,25.18],[88.574,25.188],[88.456,25.188],[88.373,24.962],[88.313,24.882],[88.28,24.882],[88.189,24.921],[88.15,24.915],[88.045,24.713],[88.03,24.664],[88.023,24.628],[88.079,24.55],[88.145,24.486],[88.225,24.461],[88.287,24.48],[88.338,24.454],[88.397,24.389],[88.499,24.347],[88.642,24.326],[88.724,24.275],[88.734,24.231],[88.727,24.186],[88.714,24.07],[88.7,24.003],[88.623,23.826],[88.567,23.674],[88.596,23.602],[88.616,23.573],[88.636,23.55],[88.698,23.493],[88.741,23.437],[88.704,23.293],[88.724,23.255],[88.808,23.23],[88.897,23.21],[88.928,23.187],[88.851,23.041],[88.867,22.939],[88.9,22.843],[88.923,22.688],[88.927,22.671],[88.921,22.632],[88.971,22.511],[89.05,22.275],[89.056,22.186],[89.051,22.093]]}},{"type":"Feature","properties":{},"geometry":{"type":"LineString","coordinates":[[56.234,25.304],[56.216,25.267],[56.211,25.213],[56.24,25.209],[56.282,25.236],[56.288,25.279],[56.277,25.301],[56.234,25.304],[56.234,25.304],[56.234,25.304],[56.234,25.304],[56.234,25.304]]}},{"type":"Feature","properties":{},"geometry":{"type":"LineString","coordinates":[[107.973,21.508],[107.908,21.56],[107.802,21.645],[107.759,21.655],[107.641,21.614],[107.471,21.598],[107.433,21.642],[107.351,21.609],[107.272,21.711],[107.179,21.717],[107.062,21.794],[107.02,21.835],[107.006,21.893],[106.971,21.924],[106.925,21.92],[106.874,21.951],[106.794,21.982],[106.73,22.0],[106.698,21.986],[106.664,21.979],[106.658,22.018],[106.66,22.136],[106.654,22.241],[106.637,22.289],[106.593,22.325],[106.554,22.342],[106.536,22.395],[106.55,22.501],[106.582,22.573],[106.633,22.586],[106.702,22.638],[106.736,22.711],[106.78,22.779],[106.624,22.874],[106.542,22.908],[106.451,22.894],[106.338,22.863],[106.279,22.857],[106.249,22.869],[106.184,22.955],[106.148,22.97],[106.068,22.976],[106.001,22.975],[105.962,22.937],[105.903,22.925],[105.843,22.923],[105.782,22.969],[105.691,23.03],[105.548,23.073],[105.531,23.122],[105.495,23.181],[105.44,23.235],[105.35,23.308],[105.275,23.345],[105.239,23.322],[105.189,23.281],[104.996,23.194],[104.91,23.161],[104.865,23.136],[104.827,23.1],[104.815,23.011],[104.796,22.911],[104.74,22.86],[104.687,22.822],[104.632,22.818],[104.578,22.82],[104.527,22.804],[104.372,22.704],[104.298,22.712],[104.238,22.769],[104.212,22.809],[104.143,22.8],[104.054,22.752],[104.013,22.666],[103.991,22.586],[103.971,22.551],[103.941,22.54],[103.915,22.538],[103.637,22.77],[103.62,22.782],[103.571,22.734],[103.525,22.612],[103.493,22.588],[103.471,22.597],[103.356,22.755],[103.327,22.77],[103.301,22.764],[103.266,22.714],[103.193,22.639],[103.138,22.593],[103.136,22.542],[103.076,22.498],[103.005,22.453],[102.982,22.448],[102.935,22.466],[102.874,22.525],[102.83,22.587],[102.721,22.648],[102.599,22.7],[102.517,22.741],[102.471,22.751],[102.428,22.733],[102.406,22.708],[102.376,22.647],[102.302,22.546],[102.237,22.466],[102.176,22.415],[102.127,22.379]]}},{"type":"Feature","properties":{},"geometry":{"type":"LineString","coordinates":[[79.117,33.225],[79.355,33.17],[79.376,33.146],[79.34,33.034],[79.335,32.976],[79.436,32.834],[79.499,32.73],[79.494,32.688],[79.47,32.643],[79.385,32.57],[79.292,32.507],[79.219,32.501],[79.219,32.501]]}},{"type":"Feature","properties":{},"geometry":{"type":"LineString","coordinates":[[79.219,32.501],[79.17,32.497],[79.127,32.476],[79.067,32.388],[78.998,32.365],[78.919,32.358],[78.838,32.412],[78.771,32.468],[78.753,32.499],[78.737,32.558],[78.701,32.597],[78.632,32.579],[78.526,32.571],[78.413,32.558],[78.392,32.545],[78.39,32.52],[78.417,32.467],[78.441,32.397],[78.455,32.3],[78.486,32.236],[78.487,32.234]]}},{"type":"Feature","properties":{},"geometry":{"type":"LineString","coordinates":[[78.487,32.234],[78.496,32.216],[78.678,32.023],[78.726,31.984],[78.735,31.958],[78.72,31.888],[78.717,31.88]]}},{"type":"Feature","properties":{},"geometry":{"type":"LineString","coordinates":[[78.717,31.88],[78.687,31.806],[78.693,31.74],[78.754,31.668],[78.803,31.618],[78.755,31.55],[78.727,31.472],[78.759,31.437],[78.743,31.324],[78.758,31.302],[78.792,31.294],[78.843,31.301]]}},{"type":"Feature","properties":{},"geometry":{"type":"LineString","coordinates":[[78.843,31.301],[78.845,31.302],[78.9,31.331],[78.946,31.337],[78.974,31.329],[79.011,31.414],[79.044,31.426],[79.107,31.403],[79.233,31.242],[79.339,31.106],[79.37,31.08],[79.37,31.079]]}},{"type":"Feature","properties":{},"geometry":{"type":"LineString","coordinates":[[79.37,31.079],[79.388,31.064],[79.493,30.994],[79.565,30.949],[79.664,30.965],[79.795,30.968],[79.872,30.925],[79.91,30.898]]}},{"type":"Feature","properties":{},"geometry":{"type":"LineString","coordinates":[[79.91,30.898],[79.917,30.894],[80.082,30.782],[80.149,30.79],[80.194,30.759],[80.207,30.684],[80.186,30.605],[80.191,30.569]]}},{"type":"Feature","properties":{},"geometry":{"type":"LineString","coordinates":[[80.191,30.569],[80.191,30.568],[80.261,30.561],[80.41,30.509],[80.541,30.464],[80.609,30.449],[80.682,30.415],[80.747,30.36],[80.874,30.291],[80.985,30.237],[81.01,30.165]]}},{"type":"Feature","properties":{},"geometry":{"type":"LineString","coordinates":[[90.334,28.118],[90.334,28.119],[90.352,28.168],[90.363,28.216],[90.348,28.244],[90.221,28.278],[90.105,28.302],[89.981,28.311],[89.898,28.294],[89.817,28.256],[89.799,28.238]]}},{"type":"Feature","properties":{},"geometry":{"type":"LineString","coordinates":[[89.799,28.238],[89.75,28.188],[89.653,28.158],[89.537,28.107],[89.481,28.06],[89.396,27.958],[89.273,27.833],[89.16,27.711],[89.116,27.621]]}},{"type":"Feature","properties":{},"geometry":{"type":"LineString","coordinates":[[89.116,27.621],[89.102,27.593],[89.026,27.518],[89.021,27.515]]}},{"type":"Feature","properties":{},"geometry":{"type":"LineString","coordinates":[[89.021,27.515],[88.948,27.464],[88.891,27.316]]}},{"type":"Feature","properties":{},"geometry":{"type":"LineString","coordinates":[[75.304,32.318],[75.334,32.279],[75.325,32.215],[75.254,32.14],[75.139,32.105],[75.072,32.089],[74.739,31.949],[74.636,31.89],[74.556,31.819],[74.526,31.765],[74.51,31.713],[74.582,31.524],[74.594,31.465],[74.535,31.261],[74.518,31.186],[74.54,31.133],[74.61,31.113],[74.626,31.069],[74.633,31.035],[74.51,30.96],[74.38,30.893],[74.339,30.894],[74.216,30.769],[74.009,30.52],[73.899,30.435],[73.892,30.394],[73.883,30.352],[73.925,30.282],[73.933,30.222],[73.887,30.162],[73.809,30.093],[73.658,30.033],[73.467,29.972],[73.382,29.934],[73.317,29.773],[73.258,29.611],[73.231,29.551],[73.128,29.364],[72.949,29.089],[72.903,29.029],[72.626,28.896],[72.342,28.752],[72.292,28.697],[72.234,28.566],[72.179,28.422],[72.129,28.346],[71.948,28.177],[71.889,28.047],[71.87,27.963],[71.717,27.915],[71.543,27.87],[71.29,27.855],[71.185,27.832],[70.875,27.714],[70.798,27.71],[70.737,27.729],[70.692,27.769],[70.649,27.835],[70.629,27.937],[70.569,27.984],[70.489,28.023],[70.404,28.025],[70.318,27.982],[70.244,27.934],[70.194,27.895],[70.145,27.849],[70.05,27.695],[69.896,27.474],[69.725,27.313],[69.661,27.264],[69.622,27.228],[69.568,27.175],[69.537,27.123],[69.494,26.954],[69.47,26.804],[69.481,26.771],[69.507,26.743],[69.601,26.699],[69.736,26.627],[69.911,26.586],[70.059,26.579],[70.115,26.548],[70.148,26.506],[70.157,26.471],[70.149,26.348],[70.133,26.215],[70.078,26.072],[70.079,25.99],[70.1,25.91],[70.265,25.707],[70.325,25.686],[70.449,25.681],[70.506,25.685],[70.57,25.706],[70.615,25.692],[70.648,25.667],[70.657,25.626],[70.652,25.423],[70.702,25.331],[70.8,25.206],[70.878,25.063],[70.951,24.892],[71.021,24.758],[71.048,24.688],[71.002,24.654],[70.976,24.619],[70.97,24.572],[70.979,24.522],[70.973,24.487],[71.006,24.444],[71.045,24.43],[71.044,24.4],[70.983,24.361],[70.928,24.362],[70.886,24.344],[70.805,24.262],[70.767,24.245],[70.716,24.238],[70.659,24.246],[70.579,24.279],[70.556,24.331],[70.565,24.386],[70.547,24.418],[70.489,24.412],[70.289,24.356],[70.098,24.287],[70.065,24.241],[70.021,24.192],[69.934,24.171],[69.805,24.165],[69.716,24.173],[69.634,24.225],[69.559,24.273],[69.443,24.275],[69.235,24.268],[69.12,24.269],[69.052,24.286],[68.985,24.273],[68.901,24.292],[68.863,24.266],[68.828,24.264],[68.8,24.309],[68.781,24.314],[68.759,24.307],[68.74,24.292],[68.728,24.266],[68.724,23.965],[68.587,23.967],[68.489,23.967],[68.381,23.951],[68.283,23.928],[68.234,23.901],[68.165,23.857]]}},{"type":"Feature","properties":{},"geometry":{"type":"LineString","coordinates":[[75.319,34.582],[75.264,34.601],[75.188,34.639],[75.118,34.637],[74.952,34.646],[74.789,34.678],[74.594,34.716],[74.498,34.732],[74.3,34.765],[74.172,34.721],[74.056,34.681],[73.961,34.653],[73.883,34.529],[73.85,34.485],[73.812,34.422],[73.794,34.378],[73.81,34.325],[73.925,34.288],[73.972,34.237],[73.979,34.191],[73.938,34.145],[73.904,34.108],[73.904,34.076],[73.922,34.043],[73.95,34.019],[74.113,34.004],[74.209,34.003],[74.247,33.99],[74.251,33.946],[74.216,33.887],[74.078,33.839],[74.001,33.788],[73.976,33.721],[73.978,33.668],[74.004,33.632],[74.07,33.592],[74.131,33.545],[74.15,33.507],[74.143,33.455],[74.118,33.384],[74.05,33.301],[73.994,33.242],[73.99,33.221],[74.004,33.189],[74.049,33.143],[74.126,33.075],[74.222,33.02],[74.284,33.005],[74.304,32.992],[74.323,32.928],[74.33,32.861],[74.306,32.81]]}},{"type":"Feature","properties":{},"geometry":{"type":"LineString","coordinates":[[34.078,9.461],[34.079,9.513],[34.12,9.73],[34.159,9.853],[34.185,9.919],[34.291,10.125],[34.311,10.191],[34.315,10.252],[34.276,10.528],[34.344,10.659],[34.431,10.788],[34.508,10.843],[34.572,10.88],[34.602,10.865],[34.675,10.805],[34.771,10.746],[34.816,10.759],[34.882,10.811],[34.931,10.865],[34.925,10.962],[34.969,11.162],[34.961,11.277],[35.008,11.42],[35.06,11.621],[35.083,11.748],[35.112,11.817],[35.252,11.957],[35.373,12.156],[35.45,12.301],[35.596,12.537],[35.67,12.624],[35.731,12.661],[35.821,12.685],[35.988,12.706],[36.107,12.726],[36.125,12.757],[36.135,12.805],[36.137,12.911],[36.16,13.093],[36.212,13.271],[36.274,13.406],[36.307,13.467],[36.346,13.526],[36.391,13.626],[36.447,13.842],[36.444,13.988],[36.524,14.257]]}},{"type":"Feature","properties":{},"geometry":{"type":"LineString","coordinates":[[81.01,30.165],[80.966,30.18],[80.908,30.172],[80.848,30.14],[80.82,30.119],[80.684,29.994],[80.613,29.956],[80.549,29.9],[80.402,29.73],[80.317,29.572],[80.255,29.423],[80.256,29.318],[80.233,29.195],[80.17,29.124],[80.13,29.1],[80.085,28.994],[80.052,28.87],[80.071,28.83],[80.15,28.776],[80.227,28.723],[80.325,28.666],[80.419,28.612],[80.479,28.605],[80.496,28.636],[80.518,28.665],[80.587,28.65],[80.671,28.596],[80.726,28.554],[80.751,28.54],[80.896,28.469],[81.017,28.41],[81.169,28.335],[81.206,28.289],[81.239,28.241],[81.311,28.176],[81.486,28.062],[81.636,27.98],[81.757,27.914],[81.853,27.867],[81.897,27.874],[81.945,27.899],[81.988,27.914],[82.037,27.901],[82.112,27.865],[82.288,27.757],[82.451,27.672],[82.63,27.687],[82.677,27.673],[82.711,27.597],[82.733,27.519],[82.933,27.468],[83.064,27.445],[83.214,27.402],[83.29,27.371],[83.369,27.41],[83.384,27.445],[83.447,27.465],[83.552,27.456],[83.747,27.396],[83.829,27.378],[83.897,27.435],[84.025,27.462],[84.091,27.491],[84.23,27.428],[84.481,27.348],[84.61,27.299],[84.641,27.25],[84.655,27.204],[84.654,27.092],[84.685,27.041],[84.937,26.927],[85.02,26.879],[85.087,26.863],[85.125,26.861],[85.152,26.847],[85.174,26.782],[85.192,26.767],[85.24,26.75],[85.293,26.741],[85.456,26.797],[85.568,26.84],[85.648,26.829],[85.7,26.782],[85.707,26.713],[85.737,26.64],[85.795,26.604],[85.856,26.6],[86.007,26.649],[86.129,26.612],[86.242,26.598],[86.366,26.574],[86.414,26.556],[86.544,26.496],[86.701,26.435],[86.762,26.442],[87.016,26.555],[87.038,26.542],[87.09,26.433],[87.167,26.394],[87.287,26.36],[87.414,26.423],[87.513,26.405],[87.633,26.399],[87.749,26.429],[87.849,26.437],[87.995,26.382],[88.027,26.395],[88.055,26.43],[88.112,26.586],[88.162,26.725],[88.157,26.807],[88.111,26.928],[87.993,27.086],[87.984,27.134],[88.024,27.409],[88.068,27.567],[88.106,27.642],[88.147,27.749],[88.154,27.799],[88.15,27.843],[88.11,27.871]]}}]}